[{"OBJECT_NAME":"STARLINK-30113","OBJECT_ID":"2023-056F","EPOCH":"2025-11-25T07:13:31.171008","MEAN_MOTION":15.0252998,"ECCENTRICITY":0.00014828,"INCLINATION":43.0046,"RA_OF_ASC_NODE":57.2815,"ARG_OF_PERICENTER":270.1474,"MEAN_ANOMALY":89.9198,"EPHEMERIS_TYPE":0,"CLASSIFICATION_TYPE":"U","NORAD_CAT_ID":56291,"ELEMENT_SET_NO":999,"REV_AT_EPOCH":14432,"BSTAR":7.108005e-5,"MEAN_MOTION_DOT":7.56e-6,"MEAN_MOTION_DDOT":0},{"OBJECT_NAME":"STARLINK-30098","OBJECT_ID":"2023-056G","EPOCH":"2025-11-25T13:22:01.917696","MEAN_MOTION":15.02542437,"ECCENTRICITY":0.00011083,"INCLINATION":43.004,"RA_OF_ASC_NODE":55.7617,"ARG_OF_PERICENTER":270.0121,"MEAN_ANOMALY":90.0595,"EPHEMERIS_TYPE":0,"CLASSIFICATION_TYPE":"U","NORAD_CAT_ID":56292,"ELEMENT_SET_NO":999,"REV_AT_EPOCH":14436,"BSTAR":9.5335999e-5,"MEAN_MOTION_DOT":1.085e-5,"MEAN_MOTION_DDOT":0},{"OBJECT_NAME":"STARLINK-30090","OBJECT_ID":"2023-056H","EPOCH":"2025-11-25T13:12:36.725184","MEAN_MOTION":15.02532502,"ECCENTRICITY":0.00015734,"INCLINATION":43.0026,"RA_OF_ASC_NODE":56.5552,"ARG_OF_PERICENTER":272.1151,"MEAN_ANOMALY":87.9512,"EPHEMERIS_TYPE":0,"CLASSIFICATION_TYPE":"U","NORAD_CAT_ID":56293,"ELEMENT_SET_NO":999,"REV_AT_EPOCH":14435,"BSTAR":0.00010812953,"MEAN_MOTION_DOT":1.257e-5,"MEAN_MOTION_DDOT":0},{"OBJECT_NAME":"STARLINK-30049","OBJECT_ID":"2023-056J","EPOCH":"2025-11-25T13:07:48.400608","MEAN_MOTION":15.02536148,"ECCENTRICITY":0.00011441,"INCLINATION":43.0027,"RA_OF_ASC_NODE":56.4723,"ARG_OF_PERICENTER":270.6722,"MEAN_ANOMALY":89.3989,"EPHEMERIS_TYPE":0,"CLASSIFICATION_TYPE":"U","NORAD_CAT_ID":56294,"ELEMENT_SET_NO":999,"REV_AT_EPOCH":14435,"BSTAR":4.941517e-6,"MEAN_MOTION_DOT":-1.37e-6,"MEAN_MOTION_DDOT":0},{"OBJECT_NAME":"STARLINK-30083","OBJECT_ID":"2023-056K","EPOCH":"2025-11-26T03:20:29.040864","MEAN_MOTION":15.02548094,"ECCENTRICITY":9.03e-5,"INCLINATION":43.0036,"RA_OF_ASC_NODE":27.0843,"ARG_OF_PERICENTER":261.4469,"MEAN_ANOMALY":98.6271,"EPHEMERIS_TYPE":0,"CLASSIFICATION_TYPE":"U","NORAD_CAT_ID":56295,"ELEMENT_SET_NO":999,"REV_AT_EPOCH":14474,"BSTAR":-5.4832e-5,"MEAN_MOTION_DOT":-9.44e-6,"MEAN_MOTION_DDOT":0},{"OBJECT_NAME":"STARLINK-30089","OBJECT_ID":"2023-056L","EPOCH":"2025-11-26T03:20:51.452160","MEAN_MOTION":15.02556782,"ECCENTRICITY":0.0001388,"INCLINATION":43.0052,"RA_OF_ASC_NODE":14.05,"ARG_OF_PERICENTER":277.3037,"MEAN_ANOMALY":82.7648,"EPHEMERIS_TYPE":0,"CLASSIFICATION_TYPE":"U","NORAD_CAT_ID":56296,"ELEMENT_SET_NO":999,"REV_AT_EPOCH":14489,"BSTAR":5.3385e-5,"MEAN_MOTION_DOT":5.18e-6,"MEAN_MOTION_DDOT":0},{"OBJECT_NAME":"STARLINK-30086","OBJECT_ID":"2023-056M","EPOCH":"2025-11-25T12:39:02.050848","MEAN_MOTION":15.02538935,"ECCENTRICITY":0.00012125,"INCLINATION":43.0037,"RA_OF_ASC_NODE":56.3218,"ARG_OF_PERICENTER":272.434,"MEAN_ANOMALY":87.6363,"EPHEMERIS_TYPE":0,"CLASSIFICATION_TYPE":"U","NORAD_CAT_ID":56297,"ELEMENT_SET_NO":999,"REV_AT_EPOCH":14435,"BSTAR":1.1251104e-5,"MEAN_MOTION_DOT":-5.2e-7,"MEAN_MOTION_DDOT":0},{"OBJECT_NAME":"STARLINK-30109","OBJECT_ID":"2023-056N","EPOCH":"2025-11-25T06:25:42.919968","MEAN_MOTION":15.02536378,"ECCENTRICITY":0.00012888,"INCLINATION":43.0043,"RA_OF_ASC_NODE":57.8191,"ARG_OF_PERICENTER":277.7395,"MEAN_ANOMALY":82.3301,"EPHEMERIS_TYPE":0,"CLASSIFICATION_TYPE":"U","NORAD_CAT_ID":56298,"ELEMENT_SET_NO":999,"REV_AT_EPOCH":14437,"BSTAR":-8.907861e-6,"MEAN_MOTION_DOT":-3.24e-6,"MEAN_MOTION_DDOT":0},{"OBJECT_NAME":"STARLINK-30108","OBJECT_ID":"2023-056P","EPOCH":"2025-11-26T03:58:29.935200","MEAN_MOTION":15.0254243,"ECCENTRICITY":0.0001438,"INCLINATION":43.0039,"RA_OF_ASC_NODE":40.3783,"ARG_OF_PERICENTER":265.7595,"MEAN_ANOMALY":94.3083,"EPHEMERIS_TYPE":0,"CLASSIFICATION_TYPE":"U","NORAD_CAT_ID":56299,"ELEMENT_SET_NO":999,"REV_AT_EPOCH":14465,"BSTAR":9.6766e-6,"MEAN_MOTION_DOT":-7.3e-7,"MEAN_MOTION_DDOT":0},{"OBJECT_NAME":"STARLINK-30104","OBJECT_ID":"2023-056Q","EPOCH":"2025-11-25T13:17:14.157312","MEAN_MOTION":15.02542002,"ECCENTRICITY":0.00011151,"INCLINATION":43.0033,"RA_OF_ASC_NODE":55.7459,"ARG_OF_PERICENTER":271.0726,"MEAN_ANOMALY":88.9988,"EPHEMERIS_TYPE":0,"CLASSIFICATION_TYPE":"U","NORAD_CAT_ID":56300,"ELEMENT_SET_NO":999,"REV_AT_EPOCH":14442,"BSTAR":6.3277409e-5,"MEAN_MOTION_DOT":6.51e-6,"MEAN_MOTION_DDOT":0},{"OBJECT_NAME":"STARLINK-30101","OBJECT_ID":"2023-056R","EPOCH":"2025-11-25T07:37:28.690752","MEAN_MOTION":15.02537263,"ECCENTRICITY":0.00012383,"INCLINATION":43.0026,"RA_OF_ASC_NODE":57.3948,"ARG_OF_PERICENTER":255.8671,"MEAN_ANOMALY":104.2034,"EPHEMERIS_TYPE":0,"CLASSIFICATION_TYPE":"U","NORAD_CAT_ID":56301,"ELEMENT_SET_NO":999,"REV_AT_EPOCH":14438,"BSTAR":2.5110688e-5,"MEAN_MOTION_DOT":1.36e-6,"MEAN_MOTION_DDOT":0},{"OBJECT_NAME":"STARLINK-30111","OBJECT_ID":"2023-056S","EPOCH":"2025-11-25T12:15:04.720320","MEAN_MOTION":15.02526987,"ECCENTRICITY":0.00011393,"INCLINATION":43.0021,"RA_OF_ASC_NODE":56.1959,"ARG_OF_PERICENTER":269.2521,"MEAN_ANOMALY":90.8191,"EPHEMERIS_TYPE":0,"CLASSIFICATION_TYPE":"U","NORAD_CAT_ID":56302,"ELEMENT_SET_NO":999,"REV_AT_EPOCH":14441,"BSTAR":-0.00028020195,"MEAN_MOTION_DOT":-3.986e-5,"MEAN_MOTION_DDOT":0},{"OBJECT_NAME":"STARLINK-30099","OBJECT_ID":"2023-056U","EPOCH":"2025-11-25T12:10:16.879584","MEAN_MOTION":15.02488017,"ECCENTRICITY":0.00012892,"INCLINATION":43.0058,"RA_OF_ASC_NODE":56.1587,"ARG_OF_PERICENTER":261.922,"MEAN_ANOMALY":98.1476,"EPHEMERIS_TYPE":0,"CLASSIFICATION_TYPE":"U","NORAD_CAT_ID":56304,"ELEMENT_SET_NO":999,"REV_AT_EPOCH":14441,"BSTAR":0.00077948985,"MEAN_MOTION_DOT":0.00010328,"MEAN_MOTION_DDOT":0},{"OBJECT_NAME":"STARLINK-30094","OBJECT_ID":"2023-056V","EPOCH":"2025-11-25T07:18:16.977024","MEAN_MOTION":15.02533259,"ECCENTRICITY":0.00012542,"INCLINATION":43.004,"RA_OF_ASC_NODE":57.2094,"ARG_OF_PERICENTER":270.9226,"MEAN_ANOMALY":89.1473,"EPHEMERIS_TYPE":0,"CLASSIFICATION_TYPE":"U","NORAD_CAT_ID":56305,"ELEMENT_SET_NO":999,"REV_AT_EPOCH":14438,"BSTAR":-2.8511284e-5,"MEAN_MOTION_DOT":-5.89e-6,"MEAN_MOTION_DDOT":0},{"OBJECT_NAME":"STARLINK-30112","OBJECT_ID":"2023-056W","EPOCH":"2025-11-25T12:19:51.102624","MEAN_MOTION":15.02539055,"ECCENTRICITY":9.45e-5,"INCLINATION":43.0023,"RA_OF_ASC_NODE":56.2196,"ARG_OF_PERICENTER":249.4285,"MEAN_ANOMALY":110.6456,"EPHEMERIS_TYPE":0,"CLASSIFICATION_TYPE":"U","NORAD_CAT_ID":56306,"ELEMENT_SET_NO":999,"REV_AT_EPOCH":14441,"BSTAR":4.1083009e-5,"MEAN_MOTION_DOT":3.52e-6,"MEAN_MOTION_DDOT":0},{"OBJECT_NAME":"STARLINK-6038","OBJECT_ID":"2023-058A","EPOCH":"2025-11-25T23:47:59.638272","MEAN_MOTION":15.05658815,"ECCENTRICITY":0.0001826,"INCLINATION":97.6019,"RA_OF_ASC_NODE":329.0054,"ARG_OF_PERICENTER":94.0302,"MEAN_ANOMALY":266.1133,"EPHEMERIS_TYPE":0,"CLASSIFICATION_TYPE":"U","NORAD_CAT_ID":56317,"ELEMENT_SET_NO":999,"REV_AT_EPOCH":14224,"BSTAR":2.6311463e-5,"MEAN_MOTION_DOT":3.19e-6,"MEAN_MOTION_DDOT":0},{"OBJECT_NAME":"STARLINK-5954","OBJECT_ID":"2023-058B","EPOCH":"2025-11-25T21:32:25.492128","MEAN_MOTION":15.0564834,"ECCENTRICITY":0.00022324,"INCLINATION":97.6027,"RA_OF_ASC_NODE":328.9778,"ARG_OF_PERICENTER":85.1607,"MEAN_ANOMALY":274.9875,"EPHEMERIS_TYPE":0,"CLASSIFICATION_TYPE":"U","NORAD_CAT_ID":56318,"ELEMENT_SET_NO":999,"REV_AT_EPOCH":14223,"BSTAR":-3.0543946e-5,"MEAN_MOTION_DOT":-5.02e-6,"MEAN_MOTION_DDOT":0},{"OBJECT_NAME":"STARLINK-6039","OBJECT_ID":"2023-058C","EPOCH":"2025-11-25T21:27:02.658528","MEAN_MOTION":15.01255051,"ECCENTRICITY":6.091e-5,"INCLINATION":97.6055,"RA_OF_ASC_NODE":328.5235,"ARG_OF_PERICENTER":91.9994,"MEAN_ANOMALY":268.13,"EPHEMERIS_TYPE":0,"CLASSIFICATION_TYPE":"U","NORAD_CAT_ID":56319,"ELEMENT_SET_NO":999,"REV_AT_EPOCH":14220,"BSTAR":0.00012733563,"MEAN_MOTION_DOT":1.577e-5,"MEAN_MOTION_DDOT":0},{"OBJECT_NAME":"STARLINK-5988","OBJECT_ID":"2023-058D","EPOCH":"2025-11-25T23:11:21.988608","MEAN_MOTION":15.01261907,"ECCENTRICITY":0.00016625,"INCLINATION":97.6041,"RA_OF_ASC_NODE":328.5768,"ARG_OF_PERICENTER":170.4668,"MEAN_ANOMALY":189.6588,"EPHEMERIS_TYPE":0,"CLASSIFICATION_TYPE":"U","NORAD_CAT_ID":56320,"ELEMENT_SET_NO":999,"REV_AT_EPOCH":14222,"BSTAR":-2.0309788e-5,"MEAN_MOTION_DOT":-3.19e-6,"MEAN_MOTION_DDOT":0},{"OBJECT_NAME":"STARLINK-5876","OBJECT_ID":"2023-058E","EPOCH":"2025-11-25T23:24:03.738528","MEAN_MOTION":15.05615624,"ECCENTRICITY":0.0002146,"INCLINATION":97.6021,"RA_OF_ASC_NODE":329.0308,"ARG_OF_PERICENTER":108.637,"MEAN_ANOMALY":251.509,"EPHEMERIS_TYPE":0,"CLASSIFICATION_TYPE":"U","NORAD_CAT_ID":56321,"ELEMENT_SET_NO":999,"REV_AT_EPOCH":14224,"BSTAR":-0.0052797854,"MEAN_MOTION_DOT":-0.00075377,"MEAN_MOTION_DDOT":0},{"OBJECT_NAME":"STARLINK-6033","OBJECT_ID":"2023-058F","EPOCH":"2025-11-25T21:32:22.659072","MEAN_MOTION":15.01257966,"ECCENTRICITY":0.00021634,"INCLINATION":97.6043,"RA_OF_ASC_NODE":328.5149,"ARG_OF_PERICENTER":129.5739,"MEAN_ANOMALY":230.5677,"EPHEMERIS_TYPE":0,"CLASSIFICATION_TYPE":"U","NORAD_CAT_ID":56322,"ELEMENT_SET_NO":999,"REV_AT_EPOCH":14220,"BSTAR":-6.329115e-6,"MEAN_MOTION_DOT":-1.4e-6,"MEAN_MOTION_DDOT":0},{"OBJECT_NAME":"STARLINK-6035","OBJECT_ID":"2023-058G","EPOCH":"2025-11-26T00:33:39.678624","MEAN_MOTION":15.01261292,"ECCENTRICITY":5.49e-5,"INCLINATION":97.6056,"RA_OF_ASC_NODE":328.6643,"ARG_OF_PERICENTER":157.7314,"MEAN_ANOMALY":202.3934,"EPHEMERIS_TYPE":0,"CLASSIFICATION_TYPE":"U","NORAD_CAT_ID":56323,"ELEMENT_SET_NO":999,"REV_AT_EPOCH":14221,"BSTAR":5.65653e-5,"MEAN_MOTION_DOT":6.68e-6,"MEAN_MOTION_DDOT":0},{"OBJECT_NAME":"STARLINK-6034","OBJECT_ID":"2023-058H","EPOCH":"2025-11-25T21:28:26.387040","MEAN_MOTION":15.05645395,"ECCENTRICITY":0.00016994,"INCLINATION":97.6036,"RA_OF_ASC_NODE":328.9811,"ARG_OF_PERICENTER":86.8046,"MEAN_ANOMALY":273.3375,"EPHEMERIS_TYPE":0,"CLASSIFICATION_TYPE":"U","NORAD_CAT_ID":56324,"ELEMENT_SET_NO":999,"REV_AT_EPOCH":14223,"BSTAR":1.6516048e-5,"MEAN_MOTION_DOT":1.77e-6,"MEAN_MOTION_DDOT":0}]
